#aV2009 12 16  0  0   .00000000      96 DD+AD WGS84 FIT  NGA
## 1562 259200.00000000   900.00000000 55181  .0000000000000
+   32     1  2  3  4  5  6  7  8  9 10 11 12 13 14 15 16 17
+         18 19 20 21 22 23 24 25 26 27 28 29 30 31 32  0  0
+          0  0  0  0  0  0  0  0  0  0  0  0  0  0  0  0  0
+          0  0  0  0  0  0  0  0  0  0  0  0  0  0  0  0  0
+          0  0  0  0  0  0  0  0  0  0  0  0  0  0  0  0  0
++         0  0  0  0  0  0  0  0  0  0  0  0  0  0  0  0  0
++         0  0  0  0  0  0  0  0  0  0  0  0  0  0  0  0  0
++         0  0  0  0  0  0  0  0  0  0  0  0  0  0  0  0  0
++         0  0  0  0  0  0  0  0  0  0  0  0  0  0  0  0  0
++         0  0  0  0  0  0  0  0  0  0  0  0  0  0  0  0  0
%c cc cc ccc ccc cccc cccc cccc cccc ccccc ccccc ccccc ccccc
%c cc cc ccc ccc cccc cccc cccc cccc ccccc ccccc ccccc ccccc
%f  0.0000000  0.000000000  0.00000000000  0.000000000000000
%f  0.0000000  0.000000000  0.00000000000  0.000000000000000
%i    0    0    0    0      0      0      0      0         0
%i    0    0    0    0      0      0      0      0         0
/*      NGA, ST. LOUIS,MO.                                  
/*   EPHEMERIS COMPUTED FROM  3 DAYS OF DATA                
/* CCCCCCCCCCCCCCCCCCCCCCCCCCCCCCCCCCCCCCCCCCCCCCCCCCCCCCCCC
/* CCCCCCCCCCCCCCCCCCCCCCCCCCCCCCCCCCCCCCCCCCCCCCCCCCCCCCCCC
*  2009 12 16 23 45   .00000000                                                 
P  1  -2895.168829 -15521.327297 -21472.116183    -71.909420                    
V  1  26778.429015   3515.660181  -6077.336130      -.027856                    
P  2  20194.096166  -8032.879797 -15034.322139    204.425455                    
V  2  -9659.531462  16828.390109 -22491.591536       .045738                    
P  3 -15928.536967   3173.651595  20706.746045    488.943043                    
V  3 -12256.220397 -24279.228452  -5267.760526       .051597                    
P  4  16322.711017   4011.476694 -20795.966070   -410.439722                    
V  4 -15830.454311  20695.141719  -8131.592266      -.187055                    
P  5  24445.495623  -3321.620254   9932.643061    -27.938963                    
V  5  12100.246360   4309.404969 -28214.014024       .052066                    
P  6 -17021.862422   -813.896670  20572.013181    263.509742                    
V  6  -9602.222728 -23969.892293  -8866.041901      -.003020                    
P  7  -2565.676797  20828.999476  16176.993018      5.870737                    
V  7 -14345.156511  14892.118120 -21588.061600      -.006521                    
P  8   8043.224126  12477.023873  21947.686397       .977955                    
V  8 -19264.059777  20196.409678  -4924.652230       .004995                    
P  9  15316.422207 -21655.745737  -1228.028766     94.432474                    
V  9   2276.774331    768.600436  32134.494452       .022434                    
P 10  26132.297210    752.299521   5459.973899    -30.509403                    
V 10   6516.549979   3825.738552 -30413.627626      -.008431                    
P 11 -10194.705378  24265.672493  -1768.237690    -34.636387                    
V 11  -5700.566664   -527.031972  30177.860438      -.020190                    
P 12  12060.553717 -12108.529284 -20241.965747   -175.612254                    
V 12  25333.781875   5171.314419  12095.647063       .051180                    
P 13   5165.631640  25702.612382  -4333.880900    306.581604                    
V 13  -3254.572865  -4560.003198 -31857.655209       .000587                    
P 14 -14341.146294 -19382.596926 -11139.852880    -11.322121                    
V 14  -3016.867030 -14053.018642  27864.379733       .046398                    
P 15  11320.907520 -11656.790322  21022.155960   -317.684486                    
V 15  10760.542179  24410.368240   7844.282894       .013122                    
P 16 -26381.991600  -2442.729540   3333.227158    -20.186186                    
V 16  -3672.370966  -2958.730579 -31439.551449      -.041794                    
P 17  15380.352841  18345.475858 -11649.895128    112.524031                    
V 17   2936.657312  14722.298931  26681.056231       .034653                    
P 18  -9641.522172 -16029.745781  19241.834520     35.189847                    
V 18  23707.573188   2939.622051  14149.068643       .026687                    
P 19 -11212.201330  12660.437567  20447.788516     -4.317423                    
V 19  -8600.437669 -24528.611194  10766.751864      -.020480                    
P 20  -7019.402824  14671.874686 -21120.066535     65.315367                    
V 20 -26313.074147  -4004.330121   6056.660095      -.008027                    
P 21  -2858.647423 -18497.422618  18904.192784    -27.983290                    
V 21  16688.121069 -16958.981924 -14922.132723      -.023945                    
P 22 -20703.281771 -12361.797766  11383.381823    183.861765                    
V 22  14523.682340   -254.703373  26443.793970      -.007899                    
P 23  -2691.841582  21701.086563 -14887.273294    384.269463                    
V 23  -8662.506887 -16991.179871 -23536.294085      -.007011                    
P 24  11569.524476 -22425.144896   8789.676445    245.623066                    
V 24   9296.405828  -6391.897647 -28648.281606       .033285                    
P 25  -6477.545588  23505.823613  11108.965824     55.414699                    
V 25  -9047.314963  10202.730737 -27546.794260       .112405                    
P 26 -10506.097334 -23829.254570  -4223.381135     -2.747523                    
V 26    598.950917  -5164.976825  32145.945965      -.025164                    
P 27  17484.775822 -19649.377437   4077.813107    108.999557                    
V 27   -669.911392   4832.758493  31603.382909       .032749                    
P 28  18767.388495  13315.405446  13986.707553    -24.649283                    
V 28 -16874.812339  -1513.366705  24593.110301       .003400                    
P 29  -3318.439190 -25226.894905  -7597.969148     82.721381                    
V 29   5774.891189   8305.071897 -29707.721778       .029933                    
P 30   -608.473931 -15635.009924 -21851.359190    202.200302                    
V 30  26714.742772   2742.570025  -2698.467520       .033355                    
P 31 -16785.546096  -1171.183084 -20370.974680    -58.427781                    
V 31  15838.523142 -20982.975999 -11573.595598       .011598                    
P 32 -16216.486774   9255.975437 -18395.995287    136.608432                    
V 32 -23139.685756  -7411.703101  16647.921748      -.078253                    
EOF
